{"type": "FeatureCollection", "features": [ {"type": "Feature", "properties": {"norad_id": 30860, "name": "FENGYUN 1C DEB", "group": "fengyun-1c-debris", "lat": -61.28093087002906, "lon": -122.41472961907219, "alt_km": 815.2790027237907, "timestamp": "2025-12-26T12:57:39.551925+00:00", "meta": {"OBJECT_NAME": "FENGYUN 1C DEB", "OBJECT_ID": "1999-025AWW", "EPOCH": "2025-12-25T03:49:30.330048", "MEAN_MOTION": 14.25584296, "ECCENTRICITY": 0.00402123, "INCLINATION": 98.9041, "RA_OF_ASC_NODE": 72.8095, "ARG_OF_PERICENTER": 152.9896, "MEAN_ANOMALY": 207.3388, "EPHEMERIS_TYPE": 0, "CLASSIFICATION_TYPE": "U", "NORAD_CAT_ID": 30860, "ELEMENT_SET_NO": 999, "REV_AT_EPOCH": 96693, "BSTAR": 0.0016146669, "MEAN_MOTION_DOT": 3.811e-05, "MEAN_MOTION_DDOT": 0}, "tle": {"line1": "1 30860U 99025AWW 25359.15937882  .00003811  00000+0  16147-2 0  9992", "line2": "2 30860  98.9041  72.8095 0040212 152.9896 207.3388 14.25584296966930"}}, "geometry": {"type": "Point", "coordinates": [-122.41472961907219, -61.28093087002906]}}, {"type": "Feature", "properties": {"norad_id": 30862, "name": "FENGYUN 1C DEB", "group": "fengyun-1c-debris", "lat": -19.684089855960146, "lon": -91.22737159334659, "alt_km": 743.6711352493621, "timestamp": "2025-12-26T12:57:39.551935+00:00", "meta": {"OBJECT_NAME": "FENGYUN 1C DEB", "OBJECT_ID": "1999-025AWY", "EPOCH": "2025-12-24T05:23:49.623360", "MEAN_MOTION": 14.4330008, "ECCENTRICITY": 0.00517482, "INCLINATION": 98.9562, "RA_OF_ASC_NODE": 89.5738, "ARG_OF_PERICENTER": 130.3353, "MEAN_ANOMALY": 286.2619, "EPHEMERIS_TYPE": 0, "CLASSIFICATION_TYPE": "U", "NORAD_CAT_ID": 30862, "ELEMENT_SET_NO": 999, "REV_AT_EPOCH": 96885, "BSTAR": 0.0034051786, "MEAN_MOTION_DOT": 0.0001163, "MEAN_MOTION_DDOT": 0}, "tle": {"line1": "1 30862U 99025AWY 25358.22487990  .00011630  00000+0  34052-2 0  9994", "line2": "2 30862  98.9562  89.5738 0051748 130.3353 286.2619 14.43300080968856"}}, "geometry": {"type": "Point", "coordinates": [-91.22737159334659, -19.684089855960146]}}, {"type": "Feature", "properties": {"norad_id": 30863, "name": "FENGYUN 1C DEB", "group": "fengyun-1c-debris", "lat": 57.05968190569308, "lon": 22.700566020104347, "alt_km": 1554.3861650076724, "timestamp": "2025-12-26T12:57:39.551945+00:00", "meta": {"OBJECT_NAME": "FENGYUN 1C DEB", "OBJECT_ID": "1999-025AWZ", "EPOCH": "2025-12-21T07:26:52.161216", "MEAN_MOTION": 12.40539027, "ECCENTRICITY": 0.0877249, "INCLINATION": 99.1205, "RA_OF_ASC_NODE": 184.3542, "ARG_OF_PERICENTER": 232.3747, "MEAN_ANOMALY": 314.6544, "EPHEMERIS_TYPE": 0, "CLASSIFICATION_TYPE": "U", "NORAD_CAT_ID": 30863, "ELEMENT_SET_NO": 999, "REV_AT_EPOCH": 59846, "BSTAR": 0.0027378, "MEAN_MOTION_DOT": 1.406e-05, "MEAN_MOTION_DDOT": 0}, "tle": {"line1": "1 30863U 99025AWZ 25355.31032594  .00001406  00000+0  27378-2 0  9991", "line2": "2 30863  99.1205 184.3542 0877249 232.3747 314.6544 12.40539027598462"}}, "geometry": {"type": "Point", "coordinates": [22.700566020104347, 57.05968190569308]}}, {"type": "Feature", "properties": {"norad_id": 30867, "name": "FENGYUN 1C DEB", "group": "fengyun-1c-debris", "lat": 69.89485199708315, "lon": -116.19071255734448, "alt_km": 807.6563797900926, "timestamp": "2025-12-26T12:57:39.551955+00:00", "meta": {"OBJECT_NAME": "FENGYUN 1C DEB", "OBJECT_ID": "1999-025AXD", "EPOCH": "2025-12-25T11:38:26.114208", "MEAN_MOTION": 14.28138259, "ECCENTRICITY": 0.0053395, "INCLINATION": 97.8768, "RA_OF_ASC_NODE": 265.0789, "ARG_OF_PERICENTER": 318.8245, "MEAN_ANOMALY": 91.0753, "EPHEMERIS_TYPE": 0, "CLASSIFICATION_TYPE": "U", "NORAD_CAT_ID": 30867, "ELEMENT_SET_NO": 999, "REV_AT_EPOCH": 96719, "BSTAR": 0.0024452, "MEAN_MOTION_DOT": 6.142e-05, "MEAN_MOTION_DDOT": 0}, "tle": {"line1": "1 30867U 99025AXD 25359.48502447  .00006142  00000+0  24452-2 0  9998", "line2": "2 30867  97.8768 265.0789 0053395 318.8245  91.0753 14.28138259967194"}}, "geometry": {"type": "Point", "coordinates": [-116.19071255734448, 69.89485199708315]}}, {"type": "Feature", "properties": {"norad_id": 30868, "name": "FENGYUN 1C DEB", "group": "fengyun-1c-debris", "lat": 34.05184111090194, "lon": 63.12228234357299, "alt_km": 765.9970117593566, "timestamp": "2025-12-26T12:57:39.551965+00:00", "meta": {"OBJECT_NAME": "FENGYUN 1C DEB", "OBJECT_ID": "1999-025AXE", "EPOCH": "2025-12-25T03:00:10.115712", "MEAN_MOTION": 14.11126234, "ECCENTRICITY": 0.01358087, "INCLINATION": 98.2628, "RA_OF_ASC_NODE": 236.1837, "ARG_OF_PERICENTER": 177.1984, "MEAN_ANOMALY": 345.1428, "EPHEMERIS_TYPE": 0, "CLASSIFICATION_TYPE": "U", "NORAD_CAT_ID": 30868, "ELEMENT_SET_NO": 999, "REV_AT_EPOCH": 96885, "BSTAR": 0.00015734601, "MEAN_MOTION_DOT": 2.7e-06, "MEAN_MOTION_DDOT": 0}, "tle": {"line1": "1 30868U 99025AXE 25359.12511708  .00000270  00000+0  15735-3 0  9991", "line2": "2 30868  98.2628 236.1837 0135808 177.1984 345.1428 14.11126234968852"}}, "geometry": {"type": "Point", "coordinates": [63.12228234357299, 34.05184111090194]}}, {"type": "Feature", "properties": {"norad_id": 30872, "name": "FENGYUN 1C DEB", "group": "fengyun-1c-debris", "lat": -75.66409894497228, "lon": 93.21507811856841, "alt_km": 755.8920556753856, "timestamp": "2025-12-26T12:57:39.551975+00:00", "meta": {"OBJECT_NAME": "FENGYUN 1C DEB", "OBJECT_ID": "1999-025AXJ", "EPOCH": "2025-12-24T16:52:07.429728", "MEAN_MOTION": 14.39483316, "ECCENTRICITY": 0.00403873, "INCLINATION": 99.1918, "RA_OF_ASC_NODE": 51.9309, "ARG_OF_PERICENTER": 353.0106, "MEAN_ANOMALY": 133.3238, "EPHEMERIS_TYPE": 0, "CLASSIFICATION_TYPE": "U", "NORAD_CAT_ID": 30872, "ELEMENT_SET_NO": 999, "REV_AT_EPOCH": 97908, "BSTAR": 0.00084489054, "MEAN_MOTION_DOT": 2.609e-05, "MEAN_MOTION_DDOT": 0}, "tle": {"line1": "1 30872U 99025AXJ 25358.70286377  .00002609  00000+0  84489-3 0  9990", "line2": "2 30872  99.1918  51.9309 0040387 353.0106 133.3238 14.39483316979084"}}, "geometry": {"type": "Point", "coordinates": [93.21507811856841, -75.66409894497228]}}, {"type": "Feature", "properties": {"norad_id": 30873, "name": "FENGYUN 1C DEB", "group": "fengyun-1c-debris", "lat": -77.37133686442976, "lon": 43.023827651831766, "alt_km": 768.5700963305881, "timestamp": "2025-12-26T12:57:39.551985+00:00", "meta": {"OBJECT_NAME": "FENGYUN 1C DEB", "OBJECT_ID": "1999-025AXK", "EPOCH": "2025-12-25T23:48:05.453856", "MEAN_MOTION": 14.19149716, "ECCENTRICITY": 0.01077411, "INCLINATION": 98.612, "RA_OF_ASC_NODE": 359.9287, "ARG_OF_PERICENTER": 250.1453, "MEAN_ANOMALY": 108.8085, "EPHEMERIS_TYPE": 0, "CLASSIFICATION_TYPE": "U", "NORAD_CAT_ID": 30873, "ELEMENT_SET_NO": 999, "REV_AT_EPOCH": 97380, "BSTAR": 0.00018718205, "MEAN_MOTION_DOT": 3.71e-06, "MEAN_MOTION_DDOT": 0}, "tle": {"line1": "1 30873U 99025AXK 25359.99172979  .00000371  00000+0  18718-3 0  9991", "line2": "2 30873  98.6120 359.9287 0107741 250.1453 108.8085 14.19149716973802"}}, "geometry": {"type": "Point", "coordinates": [43.023827651831766, -77.37133686442976]}}, {"type": "Feature", "properties": {"norad_id": 30874, "name": "FENGYUN 1C DEB", "group": "fengyun-1c-debris", "lat": -39.64183875379578, "lon": -156.5235919452326, "alt_km": 855.9222209763393, "timestamp": "2025-12-26T12:57:39.551995+00:00", "meta": {"OBJECT_NAME": "FENGYUN 1C DEB", "OBJECT_ID": "1999-025AXL", "EPOCH": "2025-12-23T21:54:49.279104", "MEAN_MOTION": 14.19670231, "ECCENTRICITY": 0.0041453, "INCLINATION": 98.4892, "RA_OF_ASC_NODE": 28.0656, "ARG_OF_PERICENTER": 8.2369, "MEAN_ANOMALY": 113.7735, "EPHEMERIS_TYPE": 0, "CLASSIFICATION_TYPE": "U", "NORAD_CAT_ID": 30874, "ELEMENT_SET_NO": 999, "REV_AT_EPOCH": 97179, "BSTAR": 0.00042456, "MEAN_MOTION_DOT": 8.63e-06, "MEAN_MOTION_DDOT": 0}, "tle": {"line1": "1 30874U 99025AXL 25357.91307036  .00000863  00000+0  42456-3 0  9998", "line2": "2 30874  98.4892  28.0656 0041453   8.2369 113.7735 14.19670231971790"}}, "geometry": {"type": "Point", "coordinates": [-156.5235919452326, -39.64183875379578]}}, {"type": "Feature", "properties": {"norad_id": 30876, "name": "FENGYUN 1C DEB", "group": "fengyun-1c-debris", "lat": -11.160346689931039, "lon": -13.152393801983536, "alt_km": 916.9746111052364, "timestamp": "2025-12-26T12:57:39.552005+00:00", "meta": {"OBJECT_NAME": "FENGYUN 1C DEB", "OBJECT_ID": "1999-025AXN", "EPOCH": "2025-12-25T04:42:02.155392", "MEAN_MOTION": 13.99185355, "ECCENTRICITY": 0.0066324, "INCLINATION": 98.8127, "RA_OF_ASC_NODE": 343.8007, "ARG_OF_PERICENTER": 242.6436, "MEAN_ANOMALY": 178.4471, "EPHEMERIS_TYPE": 0, "CLASSIFICATION_TYPE": "U", "NORAD_CAT_ID": 30876, "ELEMENT_SET_NO": 999, "REV_AT_EPOCH": 95884, "BSTAR": 0.0004685, "MEAN_MOTION_DOT": 6.49e-06, "MEAN_MOTION_DDOT": 0}, "tle": {"line1": "1 30876U 99025AXN 25359.19585828  .00000649  00000+0  46850-3 0  9993", "line2": "2 30876  98.8127 343.8007 0066324 242.6436 178.4471 13.99185355958849"}}, "geometry": {"type": "Point", "coordinates": [-13.152393801983536, -11.160346689931039]}}, {"type": "Feature", "properties": {"norad_id": 30878, "name": "FENGYUN 1C DEB", "group": "fengyun-1c-debris", "lat": 16.136917196694636, "lon": -0.9109564003057584, "alt_km": 868.5540963191743, "timestamp": "2025-12-26T12:57:39.552015+00:00", "meta": {"OBJECT_NAME": "FENGYUN 1C DEB", "OBJECT_ID": "1999-025AXQ", "EPOCH": "2025-12-25T12:05:31.862400", "MEAN_MOTION": 14.11912076, "ECCENTRICITY": 0.0039884, "INCLINATION": 98.7208, "RA_OF_ASC_NODE": 0.6269, "ARG_OF_PERICENTER": 257.5382, "MEAN_ANOMALY": 254.5694, "EPHEMERIS_TYPE": 0, "CLASSIFICATION_TYPE": "U", "NORAD_CAT_ID": 30878, "ELEMENT_SET_NO": 999, "REV_AT_EPOCH": 96547, "BSTAR": 0.0005272, "MEAN_MOTION_DOT": 9.27e-06, "MEAN_MOTION_DDOT": 0}, "tle": {"line1": "1 30878U 99025AXQ 25359.50384100  .00000927  00000+0  52720-3 0  9992", "line2": "2 30878  98.7208   0.6269 0039884 257.5382 254.5694 14.11912076965477"}}, "geometry": {"type": "Point", "coordinates": [-0.9109564003057584, 16.136917196694636]}}]}